start=new Date('2021-09-03T00:00:00.000Z').valueOf();
sats=[{"LAUNCH_DATE":"2019-11-11","ECCENTRICITY":"0.00020220","RCS_SIZE":"LARGE","GP_ID":"183985950","REV_AT_EPOCH":"9994","OBJECT_ID":"2019-074AA","TIME_SYSTEM":"UTC","APOAPSIS":"548.641","PERIAPSIS":"545.841","CLASSIFICATION_TYPE":"U","SEMIMAJOR_AXIS":"6925.376","ELEMENT_SET_NO":"999","CENTER_NAME":"EARTH","DECAY_DATE":null,"EPHEMERIS_TYPE":"0","MEAN_ANOMALY":"259.8040","EPOCH":"2021-09-02T18:53:25.977408","SITE":"AFETR","NORAD_CAT_ID":"44737","TLE_LINE1":"1 44737U 19074AA  21245.78710622 -.00000986  00000-0 -47269-4 0  9990","MEAN_ELEMENT_THEORY":"SGP4","ARG_OF_PERICENTER":"100.3177","FILE":"3107724","BSTAR":"-0.00004726900000","TLE_LINE2":"2 44737  53.0553  48.8409 0002022 100.3177 259.8040 15.06391040 99944","INCLINATION":"53.0553","OBJECT_TYPE":"PAYLOAD","MEAN_MOTION_DDOT":"0.0000000000000","REF_FRAME":"TEME","OBJECT_NAME":"STARLINK-1032","COUNTRY_CODE":"US","RA_OF_ASC_NODE":"48.8409","PERIOD":"95.593","MEAN_MOTION":"15.06391040","MEAN_MOTION_DOT":"-0.00000986"},{"GP_ID":"183987202","OBJECT_ID":"2019-074AB","RCS_SIZE":"LARGE","REV_AT_EPOCH":"9993","ECCENTRICITY":"0.00018060","LAUNCH_DATE":"2019-11-11","DECAY_DATE":null,"EPHEMERIS_TYPE":"0","MEAN_ANOMALY":"252.8599","EPOCH":"2021-09-02T18:32:11.741568","ELEMENT_SET_NO":"999","CENTER_NAME":"EARTH","CLASSIFICATION_TYPE":"U","PERIAPSIS":"545.967","APOAPSIS":"548.469","SEMIMAJOR_AXIS":"6925.353","TIME_SYSTEM":"UTC","REF_FRAME":"TEME","MEAN_MOTION_DDOT":"0.0000000000000","FILE":"3107724","ARG_OF_PERICENTER":"107.2588","BSTAR":"0.00006745300000","TLE_LINE2":"2 44738  53.0540  48.8963 0001806 107.2588 252.8599 15.06398526 99934","OBJECT_TYPE":"PAYLOAD","INCLINATION":"53.0540","TLE_LINE1":"1 44738U 19074AB  21245.77235812  .00000723  00000-0  67453-4 0  9997","NORAD_CAT_ID":"44738","MEAN_ELEMENT_THEORY":"SGP4","SITE":"AFETR","PERIOD":"95.592","MEAN_MOTION":"15.06398526","MEAN_MOTION_DOT":"0.00000723","RA_OF_ASC_NODE":"48.8963","COUNTRY_CODE":"US","OBJECT_NAME":"STARLINK-1033"},{"LAUNCH_DATE":"2019-11-11","ECCENTRICITY":"0.00018590","RCS_SIZE":"LARGE","GP_ID":"183986952","REV_AT_EPOCH":"9994","OBJECT_ID":"2019-074AC","TIME_SYSTEM":"UTC","CLASSIFICATION_TYPE":"U","PERIAPSIS":"543.087","APOAPSIS":"545.661","SEMIMAJOR_AXIS":"6922.509","CENTER_NAME":"EARTH","ELEMENT_SET_NO":"999","MEAN_ANOMALY":"257.4403","EPOCH":"2021-09-02T19:17:35.795328","DECAY_DATE":null,"EPHEMERIS_TYPE":"0","SITE":"AFETR","MEAN_ELEMENT_THEORY":"SGP4","NORAD_CAT_ID":"44739","TLE_LINE1":"1 44739U 19074AC  21245.80388652  .00004396  00000-0  30624-3 0  9992","TLE_LINE2":"2 44739  52.9996  46.9368 0001859 102.6793 257.4403 15.07327048 99949","INCLINATION":"52.9996","OBJECT_TYPE":"PAYLOAD","BSTAR":"0.00030624000000","FILE":"3107724","ARG_OF_PERICENTER":"102.6793","REF_FRAME":"TEME","MEAN_MOTION_DDOT":"0.0000000000000","OBJECT_NAME":"STARLINK-1034","COUNTRY_CODE":"US","RA_OF_ASC_NODE":"46.9368","MEAN_MOTION_DOT":"0.00004396","MEAN_MOTION":"15.07327048","PERIOD":"95.533"},{"MEAN_ELEMENT_THEORY":"SGP4","TLE_LINE1":"1 44740U 19074AD  21245.78344185  .00000820  00000-0  73982-4 0  9997","NORAD_CAT_ID":"44740","SITE":"AFETR","REF_FRAME":"TEME","MEAN_MOTION_DDOT":"0.0000000000000","TLE_LINE2":"2 44740  53.0554  48.8460 0002019 106.4522 253.6689 15.06389401 99942","INCLINATION":"53.0554","OBJECT_TYPE":"PAYLOAD","FILE":"3107724","BSTAR":"0.00007398200000","ARG_OF_PERICENTER":"106.4522","RA_OF_ASC_NODE":"48.8460","COUNTRY_CODE":"US","OBJECT_NAME":"STARLINK-1035","MEAN_MOTION_DOT":"0.00000820","MEAN_MOTION":"15.06389401","PERIOD":"95.593","GP_ID":"183986201","OBJECT_ID":"2019-074AD","RCS_SIZE":"LARGE","REV_AT_EPOCH":"9994","ECCENTRICITY":"0.00020190","LAUNCH_DATE":"2019-11-11","APOAPSIS":"548.644","PERIAPSIS":"545.848","CLASSIFICATION_TYPE":"U","SEMIMAJOR_AXIS":"6925.381","TIME_SYSTEM":"UTC","MEAN_ANOMALY":"253.6689","EPOCH":"2021-09-02T18:48:09.375840","EPHEMERIS_TYPE":"0","DECAY_DATE":null,"CENTER_NAME":"EARTH","ELEMENT_SET_NO":"999"},{"RA_OF_ASC_NODE":"48.8026","COUNTRY_CODE":"US","OBJECT_NAME":"STARLINK-1036","MEAN_MOTION_DOT":"0.00000845","MEAN_MOTION":"15.06387213","PERIOD":"95.593","MEAN_ELEMENT_THEORY":"SGP4","TLE_LINE1":"1 44741U 19074AE  21245.79450750  .00000845  00000-0  75664-4 0  9991","NORAD_CAT_ID":"44741","SITE":"AFETR","REF_FRAME":"TEME","MEAN_MOTION_DDOT":"0.0000000000000","TLE_LINE2":"2 44741  53.0572  48.8026 0001724 110.4919 249.6255 15.06387213 99941","OBJECT_TYPE":"PAYLOAD","INCLINATION":"53.0572","FILE":"3107724","BSTAR":"0.00007566400000","ARG_OF_PERICENTER":"110.4919","PERIAPSIS":"546.059","CLASSIFICATION_TYPE":"U","APOAPSIS":"548.447","SEMIMAJOR_AXIS":"6925.388","TIME_SYSTEM":"UTC","EPOCH":"2021-09-02T19:04:05.448000","MEAN_ANOMALY":"249.6255","EPHEMERIS_TYPE":"0","DECAY_DATE":null,"CENTER_NAME":"EARTH","ELEMENT_SET_NO":"999","GP_ID":"183986451","RCS_SIZE":"LARGE","REV_AT_EPOCH":"9994","OBJECT_ID":"2019-074AE","ECCENTRICITY":"0.00017240","LAUNCH_DATE":"2019-11-11"},{"LAUNCH_DATE":"2019-11-11","ECCENTRICITY":"0.00010720","OBJECT_ID":"2019-074AF","GP_ID":"183986702","RCS_SIZE":"LARGE","REV_AT_EPOCH":"9998","TIME_SYSTEM":"UTC","PERIAPSIS":"540.307","CLASSIFICATION_TYPE":"U","APOAPSIS":"541.790","SEMIMAJOR_AXIS":"6919.184","CENTER_NAME":"EARTH","ELEMENT_SET_NO":"999","EPOCH":"2021-09-02T18:05:22.459488","MEAN_ANOMALY":"290.2709","EPHEMERIS_TYPE":"0","DECAY_DATE":null,"SITE":"AFETR","MEAN_ELEMENT_THEORY":"SGP4","NORAD_CAT_ID":"44742","TLE_LINE1":"1 44742U 19074AF  21245.75373217  .00003940  00000-0  26849-3 0  9999","TLE_LINE2":"2 44742  52.9983  44.1016 0001072  69.8395 290.2709 15.08413771 99986","OBJECT_TYPE":"PAYLOAD","INCLINATION":"52.9983","FILE":"3107724","BSTAR":"0.00026849000000","ARG_OF_PERICENTER":"69.8395","MEAN_MOTION_DDOT":"0.0000000000000","REF_FRAME":"TEME","OBJECT_NAME":"STARLINK-1037","COUNTRY_CODE":"US","RA_OF_ASC_NODE":"44.1016","MEAN_MOTION_DOT":"0.00003940","PERIOD":"95.465","MEAN_MOTION":"15.08413771"},{"REF_FRAME":"TEME","MEAN_MOTION_DDOT":"0.0000000000000","TLE_LINE2":"2 44743  53.0554  68.8834 0001682  94.4624 265.6557 15.06397812 99757","OBJECT_TYPE":"PAYLOAD","INCLINATION":"53.0554","FILE":"3107724","ARG_OF_PERICENTER":"94.4624","BSTAR":"0.00019536000000","MEAN_ELEMENT_THEORY":"SGP4","NORAD_CAT_ID":"44743","TLE_LINE1":"1 44743U 19074AG  21245.77790477  .00002629  00000-0  19536-3 0  9991","SITE":"AFETR","MEAN_MOTION_DOT":"0.00002629","MEAN_MOTION":"15.06397812","PERIOD":"95.592","RA_OF_ASC_NODE":"68.8834","OBJECT_NAME":"STARLINK-1038","COUNTRY_CODE":"US","ECCENTRICITY":"0.00016820","RCS_SIZE":"LARGE","GP_ID":"183987453","OBJECT_ID":"2019-074AG","REV_AT_EPOCH":"9975","LAUNCH_DATE":"2019-11-11","MEAN_ANOMALY":"265.6557","EPOCH":"2021-09-02T18:40:10.972128","DECAY_DATE":null,"EPHEMERIS_TYPE":"0","CENTER_NAME":"EARTH","ELEMENT_SET_NO":"999","TIME_SYSTEM":"UTC","PERIAPSIS":"546.055","CLASSIFICATION_TYPE":"U","APOAPSIS":"548.385","SEMIMAJOR_AXIS":"6925.355"},{"GP_ID":"183964522","OBJECT_ID":"2019-074AH","RCS_SIZE":"LARGE","REV_AT_EPOCH":"9983","ECCENTRICITY":"0.00019770","LAUNCH_DATE":"2019-11-11","MEAN_ANOMALY":"274.4148","EPOCH":"2021-09-02T18:56:04.544736","DECAY_DATE":null,"EPHEMERIS_TYPE":"0","CENTER_NAME":"EARTH","ELEMENT_SET_NO":"999","PERIAPSIS":"545.838","SEMIMAJOR_AXIS":"6925.343","APOAPSIS":"548.577","CLASSIFICATION_TYPE":"U","TIME_SYSTEM":"UTC","MEAN_MOTION_DDOT":"0.0000000000000","REF_FRAME":"TEME","INCLINATION":"53.0565","TLE_LINE2":"2 44744  53.0565  68.8260 0001977  85.7066 274.4148 15.06401964 99830","OBJECT_TYPE":"PAYLOAD","FILE":"3107621","ARG_OF_PERICENTER":"85.7066","BSTAR":"0.00006947900000","MEAN_ELEMENT_THEORY":"SGP4","TLE_LINE1":"1 44744U 19074AH  21245.78894149  .00000753  00000-0  69479-4 0  9992","NORAD_CAT_ID":"44744","SITE":"AFETR","MEAN_MOTION_DOT":"0.00000753","PERIOD":"95.592","MEAN_MOTION":"15.06401964","RA_OF_ASC_NODE":"68.8260","COUNTRY_CODE":"US","OBJECT_NAME":"STARLINK-1039"},{"LAUNCH_DATE":"2019-11-11","ECCENTRICITY":"0.00020270","RCS_SIZE":"LARGE","GP_ID":"183985951","OBJECT_ID":"2019-074AK","REV_AT_EPOCH":"9966","ELEMENT_SET_NO":"999","CENTER_NAME":"EARTH","DECAY_DATE":null,"EPHEMERIS_TYPE":"0","EPOCH":"2021-09-02T18:34:51.305088","MEAN_ANOMALY":"264.6002","TIME_SYSTEM":"UTC","APOAPSIS":"548.621","PERIAPSIS":"545.813","SEMIMAJOR_AXIS":"6925.352","CLASSIFICATION_TYPE":"U","FILE":"3107724","BSTAR":"0.00006883000000","ARG_OF_PERICENTER":"95.5218","TLE_LINE2":"2 44746  53.0542  68.8806 0002027  95.5218 264.6002 15.06398841 99668","OBJECT_TYPE":"PAYLOAD","INCLINATION":"53.0542","MEAN_MOTION_DDOT":"0.0000000000000","REF_FRAME":"TEME","SITE":"AFETR","NORAD_CAT_ID":"44746","TLE_LINE1":"1 44746U 19074AK  21245.77420492  .00000744  00000-0  68830-4 0  9999","MEAN_ELEMENT_THEORY":"SGP4","MEAN_MOTION":"15.06398841","PERIOD":"95.592","MEAN_MOTION_DOT":"0.00000744","OBJECT_NAME":"STARLINK-1041","COUNTRY_CODE":"US","RA_OF_ASC_NODE":"68.8806"},{"LAUNCH_DATE":"2019-11-11","RCS_SIZE":"LARGE","GP_ID":"183987203","OBJECT_ID":"2019-074AL","REV_AT_EPOCH":"9967","ECCENTRICITY":"0.00019710","PERIAPSIS":"545.865","APOAPSIS":"548.595","SEMIMAJOR_AXIS":"6925.365","CLASSIFICATION_TYPE":"U","TIME_SYSTEM":"UTC","ELEMENT_SET_NO":"999","CENTER_NAME":"EARTH","DECAY_DATE":null,"EPHEMERIS_TYPE":"0","EPOCH":"2021-09-02T19:17:20.026464","MEAN_ANOMALY":"268.6151","SITE":"AFETR","TLE_LINE1":"1 44747U 19074AL  21245.80370401  .00000783  00000-0  71454-4 0  9997","NORAD_CAT_ID":"44747","MEAN_ELEMENT_THEORY":"SGP4","ARG_OF_PERICENTER":"91.5064","FILE":"3107724","BSTAR":"0.00007145400000","TLE_LINE2":"2 44747  53.0554  68.7674 0001971  91.5064 268.6151 15.06394586 99678","INCLINATION":"53.0554","OBJECT_TYPE":"PAYLOAD","MEAN_MOTION_DDOT":"0.0000000000000","REF_FRAME":"TEME","COUNTRY_CODE":"US","OBJECT_NAME":"STARLINK-1042","RA_OF_ASC_NODE":"68.7674","PERIOD":"95.592","MEAN_MOTION":"15.06394586","MEAN_MOTION_DOT":"0.00000783"}];
